{"type": "FeatureCollection", "features": [ {"type": "Feature", "properties": {"norad_id": 66560, "name": "STARLINK-35411", "group": "last-30-days", "lat": 3.677935085387078, "lon": -102.02297483293816, "alt_km": 413.9824572782227, "timestamp": "2025-12-19T10:49:59.921576+00:00", "meta": {"OBJECT_NAME": "STARLINK-35411", "OBJECT_ID": "2025-268D", "EPOCH": "2025-12-18T13:59:16.855008", "MEAN_MOTION": 15.50619101, "ECCENTRICITY": 0.00012512, "INCLINATION": 43.0007, "RA_OF_ASC_NODE": 87.0147, "ARG_OF_PERICENTER": 266.9937, "MEAN_ANOMALY": 93.078, "EPHEMERIS_TYPE": 0, "CLASSIFICATION_TYPE": "U", "NORAD_CAT_ID": 66560, "ELEMENT_SET_NO": 999, "REV_AT_EPOCH": 553, "BSTAR": 0.0011242099, "MEAN_MOTION_DOT": 0.00066265, "MEAN_MOTION_DDOT": 0}, "tle": {"line1": "1 66560U 25268D   25352.58283397  .00066265  00000+0  11242-2 0  9994", "line2": "2 66560  43.0007  87.0147 0001251 266.9937  93.0780 15.50619101  5536"}}, "geometry": {"type": "Point", "coordinates": [-102.02297483293816, 3.677935085387078]}}, {"type": "Feature", "properties": {"norad_id": 66561, "name": "STARLINK-35305", "group": "last-30-days", "lat": 0.9984172841825842, "lon": -99.14908983421759, "alt_km": 413.8612611520766, "timestamp": "2025-12-19T10:49:59.921587+00:00", "meta": {"OBJECT_NAME": "STARLINK-35305", "OBJECT_ID": "2025-268E", "EPOCH": "2025-12-18T15:31:02.812512", "MEAN_MOTION": 15.50641738, "ECCENTRICITY": 0.00023258, "INCLINATION": 43.0007, "RA_OF_ASC_NODE": 86.6322, "ARG_OF_PERICENTER": 257.0503, "MEAN_ANOMALY": 103.0097, "EPHEMERIS_TYPE": 0, "CLASSIFICATION_TYPE": "U", "NORAD_CAT_ID": 66561, "ELEMENT_SET_NO": 999, "REV_AT_EPOCH": 554, "BSTAR": 0.0016955293, "MEAN_MOTION_DOT": 0.00100644, "MEAN_MOTION_DDOT": 0}, "tle": {"line1": "1 66561U 25268E   25352.64656033  .00100644  00000+0  16955-2 0  9999", "line2": "2 66561  43.0007  86.6322 0002325 257.0503 103.0097 15.50641738  5545"}}, "geometry": {"type": "Point", "coordinates": [-99.14908983421759, 0.9984172841825842]}}, {"type": "Feature", "properties": {"norad_id": 66562, "name": "STARLINK-35579", "group": "last-30-days", "lat": 2.2537970839529367, "lon": -100.49391669972995, "alt_km": 413.8194305804045, "timestamp": "2025-12-19T10:49:59.921597+00:00", "meta": {"OBJECT_NAME": "STARLINK-35579", "OBJECT_ID": "2025-268F", "EPOCH": "2025-12-18T15:31:33.105216", "MEAN_MOTION": 15.50680629, "ECCENTRICITY": 0.00020241, "INCLINATION": 43.0004, "RA_OF_ASC_NODE": 86.6346, "ARG_OF_PERICENTER": 264.3612, "MEAN_ANOMALY": 95.7017, "EPHEMERIS_TYPE": 0, "CLASSIFICATION_TYPE": "U", "NORAD_CAT_ID": 66562, "ELEMENT_SET_NO": 999, "REV_AT_EPOCH": 554, "BSTAR": 0.0016821578, "MEAN_MOTION_DOT": 0.00099976, "MEAN_MOTION_DDOT": 0}, "tle": {"line1": "1 66562U 25268F   25352.64691094  .00099976  00000+0  16822-2 0  9994", "line2": "2 66562  43.0004  86.6346 0002024 264.3612  95.7017 15.50680629  5548"}}, "geometry": {"type": "Point", "coordinates": [-100.49391669972995, 2.2537970839529367]}}, {"type": "Feature", "properties": {"norad_id": 66563, "name": "STARLINK-35437", "group": "last-30-days", "lat": -0.22901292560571768, "lon": -97.83691926042054, "alt_km": 414.3828382877309, "timestamp": "2025-12-19T10:49:59.921607+00:00", "meta": {"OBJECT_NAME": "STARLINK-35437", "OBJECT_ID": "2025-268G", "EPOCH": "2025-12-18T13:57:47.901024", "MEAN_MOTION": 15.50617028, "ECCENTRICITY": 0.0001369, "INCLINATION": 43.0004, "RA_OF_ASC_NODE": 87.0056, "ARG_OF_PERICENTER": 262.6429, "MEAN_ANOMALY": 97.4275, "EPHEMERIS_TYPE": 0, "CLASSIFICATION_TYPE": "U", "NORAD_CAT_ID": 66563, "ELEMENT_SET_NO": 999, "REV_AT_EPOCH": 553, "BSTAR": 0.0010541152, "MEAN_MOTION_DOT": 0.00062074, "MEAN_MOTION_DDOT": 0}, "tle": {"line1": "1 66563U 25268G   25352.58180441  .00062074  00000+0  10541-2 0  9998", "line2": "2 66563  43.0004  87.0056 0001369 262.6429  97.4275 15.50617028  5537"}}, "geometry": {"type": "Point", "coordinates": [-97.83691926042054, -0.22901292560571768]}}, {"type": "Feature", "properties": {"norad_id": 66564, "name": "STARLINK-35358", "group": "last-30-days", "lat": -1.5024348595385006, "lon": -96.47316308661847, "alt_km": 414.52066026029934, "timestamp": "2025-12-19T10:49:59.921617+00:00", "meta": {"OBJECT_NAME": "STARLINK-35358", "OBJECT_ID": "2025-268H", "EPOCH": "2025-12-18T15:30:03.242304", "MEAN_MOTION": 15.50615887, "ECCENTRICITY": 0.00033737, "INCLINATION": 43.002, "RA_OF_ASC_NODE": 86.6273, "ARG_OF_PERICENTER": 264.8662, "MEAN_ANOMALY": 95.1814, "EPHEMERIS_TYPE": 0, "CLASSIFICATION_TYPE": "U", "NORAD_CAT_ID": 66564, "ELEMENT_SET_NO": 999, "REV_AT_EPOCH": 554, "BSTAR": 0.0010772954, "MEAN_MOTION_DOT": 0.00063464, "MEAN_MOTION_DDOT": 0}, "tle": {"line1": "1 66564U 25268H   25352.64587086  .00063464  00000+0  10773-2 0  9993", "line2": "2 66564  43.0020  86.6273 0003373 264.8662  95.1814 15.50615887  5548"}}, "geometry": {"type": "Point", "coordinates": [-96.47316308661847, -1.5024348595385006]}}, {"type": "Feature", "properties": {"norad_id": 66565, "name": "STARLINK-35893", "group": "last-30-days", "lat": -2.882136568553338, "lon": -94.99576791090058, "alt_km": 414.53458696537655, "timestamp": "2025-12-19T10:49:59.921627+00:00", "meta": {"OBJECT_NAME": "STARLINK-35893", "OBJECT_ID": "2025-268J", "EPOCH": "2025-12-18T13:56:48.664320", "MEAN_MOTION": 15.50624497, "ECCENTRICITY": 0.0001387, "INCLINATION": 43.0015, "RA_OF_ASC_NODE": 86.9997, "ARG_OF_PERICENTER": 260.7796, "MEAN_ANOMALY": 99.2908, "EPHEMERIS_TYPE": 0, "CLASSIFICATION_TYPE": "U", "NORAD_CAT_ID": 66565, "ELEMENT_SET_NO": 999, "REV_AT_EPOCH": 553, "BSTAR": 0.0012916172, "MEAN_MOTION_DOT": 0.00076297, "MEAN_MOTION_DDOT": 0}, "tle": {"line1": "1 66565U 25268J   25352.58111880  .00076297  00000+0  12916-2 0  9991", "line2": "2 66565  43.0015  86.9997 0001387 260.7796  99.2908 15.50624497  5530"}}, "geometry": {"type": "Point", "coordinates": [-94.99576791090058, -2.882136568553338]}}, {"type": "Feature", "properties": {"norad_id": 66566, "name": "STARLINK-35871", "group": "last-30-days", "lat": -4.079118341170901, "lon": -93.70768037676409, "alt_km": 414.89764937744167, "timestamp": "2025-12-19T10:49:59.921637+00:00", "meta": {"OBJECT_NAME": "STARLINK-35871", "OBJECT_ID": "2025-268K", "EPOCH": "2025-12-18T15:29:04.309728", "MEAN_MOTION": 15.5058288, "ECCENTRICITY": 0.00022304, "INCLINATION": 43.0022, "RA_OF_ASC_NODE": 86.6206, "ARG_OF_PERICENTER": 269.4272, "MEAN_ANOMALY": 90.6333, "EPHEMERIS_TYPE": 0, "CLASSIFICATION_TYPE": "U", "NORAD_CAT_ID": 66566, "ELEMENT_SET_NO": 999, "REV_AT_EPOCH": 554, "BSTAR": 0.0013881829, "MEAN_MOTION_DOT": 0.00081968, "MEAN_MOTION_DDOT": 0}, "tle": {"line1": "1 66566U 25268K   25352.64518877  .00081968  00000+0  13882-2 0  9990", "line2": "2 66566  43.0022  86.6206 0002230 269.4272  90.6333 15.50582880  5549"}}, "geometry": {"type": "Point", "coordinates": [-93.70768037676409, -4.079118341170901]}}, {"type": "Feature", "properties": {"norad_id": 66567, "name": "STARLINK-35825", "group": "last-30-days", "lat": -5.549161466118215, "lon": -92.11700829644646, "alt_km": 414.5227142161357, "timestamp": "2025-12-19T10:49:59.921649+00:00", "meta": {"OBJECT_NAME": "STARLINK-35825", "OBJECT_ID": "2025-268L", "EPOCH": "2025-12-18T15:28:34.622688", "MEAN_MOTION": 15.50645931, "ECCENTRICITY": 0.00022016, "INCLINATION": 43.0001, "RA_OF_ASC_NODE": 86.6183, "ARG_OF_PERICENTER": 261.8359, "MEAN_ANOMALY": 98.2251, "EPHEMERIS_TYPE": 0, "CLASSIFICATION_TYPE": "U", "NORAD_CAT_ID": 66567, "ELEMENT_SET_NO": 999, "REV_AT_EPOCH": 554, "BSTAR": 0.0018159536, "MEAN_MOTION_DOT": 0.00107933, "MEAN_MOTION_DDOT": 0}, "tle": {"line1": "1 66567U 25268L   25352.64484517  .00107933  00000+0  18160-2 0  9999", "line2": "2 66567  43.0001  86.6183 0002201 261.8359  98.2251 15.50645931  5541"}}, "geometry": {"type": "Point", "coordinates": [-92.11700829644646, -5.549161466118215]}}, {"type": "Feature", "properties": {"norad_id": 66568, "name": "STARLINK-35803", "group": "last-30-days", "lat": -6.610088937775379, "lon": -90.96165061696202, "alt_km": 414.82192642477276, "timestamp": "2025-12-19T10:49:59.921662+00:00", "meta": {"OBJECT_NAME": "STARLINK-35803", "OBJECT_ID": "2025-268M", "EPOCH": "2025-12-18T15:28:06.756096", "MEAN_MOTION": 15.50581871, "ECCENTRICITY": 0.00021705, "INCLINATION": 43.0002, "RA_OF_ASC_NODE": 86.6159, "ARG_OF_PERICENTER": 258.5996, "MEAN_ANOMALY": 101.4621, "EPHEMERIS_TYPE": 0, "CLASSIFICATION_TYPE": "U", "NORAD_CAT_ID": 66568, "ELEMENT_SET_NO": 999, "REV_AT_EPOCH": 554, "BSTAR": 0.0014514505, "MEAN_MOTION_DOT": 0.00085758, "MEAN_MOTION_DDOT": 0}, "tle": {"line1": "1 66568U 25268M   25352.64452264  .00085758  00000+0  14515-2 0  9994", "line2": "2 66568  43.0002  86.6159 0002170 258.5996 101.4621 15.50581871  5541"}}, "geometry": {"type": "Point", "coordinates": [-90.96165061696202, -6.610088937775379]}}, {"type": "Feature", "properties": {"norad_id": 66569, "name": "STARLINK-35835", "group": "last-30-days", "lat": -8.03061337949082, "lon": -89.40216825720597, "alt_km": 415.73135127551996, "timestamp": "2025-12-19T10:49:59.921672+00:00", "meta": {"OBJECT_NAME": "STARLINK-35835", "OBJECT_ID": "2025-268N", "EPOCH": "2025-12-18T15:27:36.053856", "MEAN_MOTION": 15.5061011, "ECCENTRICITY": 0.00010091, "INCLINATION": 42.9992, "RA_OF_ASC_NODE": 86.6128, "ARG_OF_PERICENTER": 318.6743, "MEAN_ANOMALY": 41.4041, "EPHEMERIS_TYPE": 0, "CLASSIFICATION_TYPE": "U", "NORAD_CAT_ID": 66569, "ELEMENT_SET_NO": 999, "REV_AT_EPOCH": 554, "BSTAR": 0.0014773697, "MEAN_MOTION_DOT": 0.00087398, "MEAN_MOTION_DDOT": 0}, "tle": {"line1": "1 66569U 25268N   25352.64416729  .00087398  00000+0  14774-2 0  9990", "line2": "2 66569  42.9992  86.6128 0001009 318.6743  41.4041 15.50610110  5540"}}, "geometry": {"type": "Point", "coordinates": [-89.40216825720597, -8.03061337949082]}}]}